H1 CPF  1  DLR 2022 09 13 10  7562 technosat            
H2  1704205 6203    42829 2022 09 13 00 00 00 2022 09 20 00 00 00    60 1 1  0 0 0
H9
10 0 59839  50400.000000  0      -1130291.506      -2214474.509       6492730.963
10 0 59839  50460.000000  0      -1101768.325      -1778043.004       6630213.038
10 0 59839  50520.000000  0      -1064735.253      -1334378.780       6739452.932
10 0 59839  50580.000000  0      -1019294.853       -885433.163       6819990.594
10 0 59839  50640.000000  0       -965602.333       -433177.955       6871488.081
10 0 59839  50700.000000  0       -903865.018         20403.294       6893730.845
10 0 59839  50760.000000  0       -834341.522        473324.057       6886628.599
10 0 59839  50820.000000  0       -757340.619        923603.649       6850215.610
10 0 59839  50880.000000  0       -673219.826       1369275.944       6784650.471
10 0 59839  50940.000000  0       -582383.729       1808398.021       6690215.395
10 0 59839  51000.000000  0       -485282.022       2239058.721       6567314.995
10 0 59839  51060.000000  0       -382407.286       2659386.995       6416474.544
10 0 59839  51120.000000  0       -274292.541       3067560.102       6238337.829
10 0 59839  51180.000000  0       -161508.564       3461811.660       6033664.454
10 0 59839  51240.000000  0        -44660.966       3840439.406       5803326.640
10 0 59839  51300.000000  0         75612.953       4201812.661       5548305.578
10 0 59839  51360.000000  0        198647.555       4544379.482       5269687.362
10 0 59839  51420.000000  0        323752.427       4866673.580       4968658.508
10 0 59839  51480.000000  0        450216.117       5167320.890       4646500.857
10 0 59839  51540.000000  0        577309.951       5445045.542       4304586.006
10 0 59839  51600.000000  0        704291.948       5698675.303       3944369.478
10 0 59839  51660.000000  0        830410.911       5927146.647       3567384.835
10 0 59839  51720.000000  0        954910.673       6129509.880       3175237.335
10 0 59839  51780.000000  0       1077034.532       6304933.565       2769596.563
10 0 59839  51840.000000  0       1196029.453       6452707.657       2352188.938
10 0 59839  51900.000000  0       1311150.290       6572246.491       1924790.504
10 0 59839  51960.000000  0       1421664.147       6663091.345       1489219.080
10 0 59839  52020.000000  0       1526854.616       6724912.120       1047326.249
10 0 59839  52080.000000  0       1626025.956       6757508.467        600989.314
10 0 59839  52140.000000  0       1718507.201       6760810.307        152103.097
10 0 59839  52200.000000  0       1803656.106       6734877.701       -297428.312
10 0 59839  52260.000000  0       1880862.959       6679900.126       -745699.813
10 0 59839  52320.000000  0       1949554.246       6596195.136      -1190813.525
10 0 59839  52380.000000  0       2009196.128       6484206.439      -1630886.962
10 0 59839  52440.000000  0       2059297.724       6344501.386      -2064061.113
10 0 59839  52500.000000  0       2099414.162       6177767.869      -2488508.392
10 0 59839  52560.000000  0       2129149.395       5984810.690      -2902440.394
10 0 59839  52620.000000  0       2148158.759       5766547.386      -3304115.456
10 0 59839  52680.000000  0       2156151.276       5524003.528      -3691845.947
10 0 59839  52740.000000  0       2152891.653       5258307.549      -4064005.238
10 0 59839  52800.000000  0       2138201.988       4970685.171      -4419034.324
10 0 59839  52860.000000  0       2111963.177       4662453.463      -4755448.122
10 0 59839  52920.000000  0       2074116.041       4335014.548      -5071841.382
10 0 59839  52980.000000  0       2024662.152       3989849.034      -5366894.209
10 0 59839  53040.000000  0       1963664.385       3628509.189      -5639377.255
10 0 59839  53100.000000  0       1891247.119       3252611.808      -5888156.513
10 0 59839  53160.000000  0       1807596.137       2863830.895      -6112197.634
10 0 59839  53220.000000  0       1712958.238       2463890.187      -6310569.832
10 0 59839  53280.000000  0       1607640.573       2054555.572      -6482449.328
10 0 59839  53340.000000  0       1492009.713       1637627.455      -6627122.429
10 0 59839  53400.000000  0       1366490.444       1214932.984      -6743988.248
10 0 59839  53460.000000  0       1231564.214        788318.200      -6832560.923
10 0 59839  53520.000000  0       1087767.314        359640.229      -6892471.420
10 0 59839  53580.000000  0        935688.806        -69240.598      -6923468.927
10 0 59839  53640.000000  0        775968.162       -496468.592      -6925421.766
10 0 59839  53700.000000  0        609292.662       -920200.432      -6898317.860
10 0 59839  53760.000000  0        436394.575      -1338612.826      -6842264.830
10 0 59839  53820.000000  0        258048.094      -1749910.042      -6757489.651
10 0 59839  53880.000000  0         75066.054      -2152331.332      -6644338.010
10 0 59839  53940.000000  0       -111703.662      -2544158.358      -6503273.239
10 0 59839  54000.000000  0       -301381.905      -2923722.474      -6334874.667
10 0 59839  54060.000000  0       -493062.229      -3289411.730      -6139835.498
10 0 59839  54120.000000  0       -685815.014      -3639677.641      -5918960.356
10 0 59839  54180.000000  0       -878691.793      -3973041.776      -5673162.403
10 0 59839  54240.000000  0      -1070729.746      -4288102.115      -5403460.022
10 0 59839  54300.000000  0      -1260956.355      -4583539.140      -5110973.036
10 0 59839  54360.000000  0      -1448394.189      -4858121.604      -4796918.464
10 0 59839  54420.000000  0      -1632065.801      -5110711.953      -4462605.848
10 0 59839  54480.000000  0      -1810998.706      -5340271.365      -4109432.136
10 0 59839  54540.000000  0      -1984230.412      -5545864.376      -3738876.163
10 0 59839  54600.000000  0      -2150813.479      -5726663.081      -3352492.729
10 0 59839  54660.000000  0      -2309820.584      -5881950.868      -2951906.305
10 0 59839  54720.000000  0      -2460349.569      -6011125.692      -2538804.372
10 0 59839  54780.000000  0      -2601528.437      -6113702.843      -2114930.412
10 0 59839  54840.000000  0      -2732520.266      -6189317.184      -1682076.556
10 0 59839  54900.000000  0      -2852528.015      -6237724.824      -1242075.947
10 0 59839  54960.000000  0      -2960799.174      -6258804.190       -796794.820
10 0 59839  55020.000000  0      -3056630.226      -6252556.481       -348124.386
10 0 59839  55080.000000  0      -3139370.876      -6219105.514        102027.432
10 0 59839  55140.000000  0      -3208428.054      -6158696.989        551744.369
10 0 59839  55200.000000  0      -3263269.660      -6071697.144        999110.288
10 0 59839  55260.000000  0      -3303428.003      -5958590.808       1442217.685
10 0 59839  55320.000000  0      -3328502.923      -5819978.828       1879176.174
10 0 59839  55380.000000  0      -3338164.565      -5656574.917       2308120.876
10 0 59839  55440.000000  0      -3332155.800      -5469201.967       2727220.674
10 0 59839  55500.000000  0      -3310294.268      -5258787.840       3134686.335
10 0 59839  55560.000000  0      -3272474.038      -5026360.649       3528778.405
10 0 59839  55620.000000  0      -3218666.874      -4773043.569       3907814.879
10 0 59839  55680.000000  0      -3148923.106      -4500049.199       4270178.572
10 0 59839  55740.000000  0      -3063372.100      -4208673.492       4614324.171
10 0 59839  55800.000000  0      -2962222.347      -3900289.338       4938784.899
10 0 59839  55860.000000  0      -2845761.117      -3576339.827       5242178.853
10 0 59839  55920.000000  0      -2714353.664      -3238331.205       5523214.882
10 0 59839  55980.000000  0      -2568442.076      -2887825.633       5780698.007
10 0 59839  56040.000000  0      -2408543.749      -2526433.763       6013534.435
10 0 59839  56100.000000  0      -2235249.476      -2155807.155       6220736.138
10 0 59839  56160.000000  0      -2049221.169      -1777630.556       6401424.990
10 0 59839  56220.000000  0      -1851189.175      -1393614.008       6554836.416
10 0 59839  56280.000000  0      -1641949.259      -1005484.873       6680322.439
10 0 59839  56340.000000  0      -1422359.285       -614979.907       6777354.114
10 0 59839  56400.000000  0      -1193335.672       -223837.486       6845523.527
10 0 59839  56460.000000  0       -955849.537        166210.132       6884545.469
10 0 59839  56520.000000  0       -710922.505        553444.576       6894258.574
10 0 59839  56580.000000  0       -459622.248        936169.011       6874625.903
10 0 59839  56640.000000  0       -203057.764       1312715.617       6825735.025
10 0 59839  56700.000000  0         57625.556       1681452.924       6747797.616
10 0 59839  56760.000000  0        321251.129       2040792.964       6641148.493
10 0 59839  56820.000000  0        586616.512       2389198.111       6506244.135
10 0 59839  56880.000000  0        852498.906       2725187.685       6343660.789
10 0 59839  56940.000000  0       1117660.808       3047344.320       6154092.094
10 0 59839  57000.000000  0       1380855.791       3354320.054       5938346.189
10 0 59839  57060.000000  0       1640834.368       3644842.081       5697342.348
10 0 59839  57120.000000  0       1896349.953       3917718.155       5432107.159
10 0 59839  57180.000000  0       2146164.913       4171841.654       5143770.247
10 0 59839  57240.000000  0       2389056.643       4406196.220       4833559.469
10 0 59839  57300.000000  0       2623823.570       4619859.918       4502795.665
10 0 59839  57360.000000  0       2849291.089       4812008.937       4152887.075
10 0 59839  57420.000000  0       3064317.422       4981920.873       3785323.395
10 0 59839  57480.000000  0       3267799.440       5128977.624       3401669.557
10 0 59839  57540.000000  0       3458678.469       5252667.913       3003558.988
99
